[
    {
        "Altitude(m)": 624792.7618690351,
        "Argument of Periapsis(deg)": 0.0,
        "Eccentricity": 0.0,
        "Inclination(deg)": 60.0,
        "Latitude(deg)": -59.147056639611414,
        "Longitude(deg)": 24.02656598424194,
        "Mean Anomaly(deg)": -98.18179999999994,
        "RAAN(deg)": 229.99999999999997,
        "Satellite Name": "Test1 1028",
        "Satellite Number": 1028,
        "Semi-Major Axis(m)": 6980739.136638005,
        "Time(s)": 0
    },
    {
        "Altitude(m)": 624842.1532979414,
        "Argument of Periapsis(deg)": 0.00010418945913296404,
        "Eccentricity": 0.0,
        "Inclination(deg)": 60.0,
        "Latitude(deg)": -59.28913830799806,
        "Longitude(deg)": 25.156069919575827,
        "Mean Anomaly(deg)": -97.56169385453809,
        "RAAN(deg)": 229.99957995086024,
        "Satellite Name": "Test1 1028",
        "Satellite Number": 1028,
        "Semi-Major Axis(m)": 6980739.136638005,
        "Time(s)": 10
    }
]